EUTELSAT 21B            
1 38992U 12062B   25361.18933931  .00000152  00000+0  00000+0 0  9992
2 38992   0.0650 354.5357 0003231 287.7801 263.3477  1.00272057 48107
EUTELSAT 70B            
1 39020U 12069A   25361.19904604 -.00000021  00000+0  00000+0 0  9994
2 39020   0.0609 352.5542 0004161 264.8398 340.6870  1.00271041 47789
EUTELSAT 117 WEST A     
1 39122U 13012A   25361.23327957  .00000010  00000+0  00000+0 0  9998
2 39122   0.0142 335.0250 0002878 304.6953 143.4263  1.00270818 46706
EUTELSAT 7B             
1 39163U 13022A   25361.25947390  .00000070  00000+0  00000+0 0  9991
2 39163   0.0674  13.7570 0004787 308.4860 234.1547  1.00271950 46224
EXPRESS-AT1             
1 39612U 14010A   25361.19601269  .00000101  00000+0  00000+0 0  9998
2 39612   0.0153 289.8864 0000892 213.1890  79.4173  1.00272900 43098
EXPRESS-AT2             
1 39613U 14010B   25361.28415324 -.00000259  00000+0  00000+0 0  9999
2 39613   0.0178 328.3157 0001704 308.5849  61.2712  1.00270775 42776
EUTELSAT 3B             
1 39773U 14030A   25361.25947390  .00000042  00000+0  00000+0 0  9997
2 39773   0.0600 354.4554 0004287 242.3493 315.6906  1.00270423 42347
EUTELSAT 115 WEST B     
1 40425U 15010B   25360.23933543 -.00000003  00000+0  00000+0 0  9992
2 40425   0.0077 147.8651 0000078 258.8043  19.5710  1.00273604 39657
